*******************************************************************************
 Revised: January 23, 2020             Saturn                               699
 
 PHYSICAL DATA (updated 2020-Jan-03):
  Mass x10^26 (kg)      = 5.6834          Density (g/cm^3)       =  0.687+-.001
  Equat. radius (1 bar) = 60268+-4 km     Polar radius (km)      = 54364+-10
  Vol. Mean Radius (km) = 58232+-6        Flattening             =  0.09796
  Geometric Albedo      = 0.47            Rocky core mass (Mc/M) =  0.1027
  Sid. rot. period (III)= 10h 39m 22.4s   Sid. rot. rate (rad/s) =  0.000163785 
  Mean solar day, hrs   =~10.656         
  GM (km^3/s^2)         = 37931206.159    GM 1-sigma (km^3/s^2)  = +- 98
  Equ. grav, ge (m/s^2) = 10.44           Pol. grav, gp (m/s^2)  = 12.14+-0.01
  Vis. magnitude V(1,0) = -8.88          
  Vis. mag. (opposition)= +0.67           Obliquity to orbit     = 26.73 deg
  Sidereal orbit period = 29.447498 yr    Sidereal orbit period  = 10755.698 d
  Mean daily motion     = 0.0334979 deg/d Mean orbit velocity    =  9.68 km/s
  Atmos. temp. (1 bar)  = 134+-4 K        Escape speed, km/s    =  35.5          
  Aroche(ice)/Rp        =  2.71           Hill's sphere rad. Rp  = 1100
                                 Perihelion  Aphelion    Mean
  Solar Constant (W/m^2)         16.8        13.6        15.1
  Maximum Planetary IR (W/m^2)    4.7         4.5         4.6
  Minimum Planetary IR (W/m^2)    4.7         4.5         4.6
*******************************************************************************


*******************************************************************************
Ephemeris / WWW_USER Sun Nov 14 18:25:47 2021 Pasadena, USA      / Horizons
*******************************************************************************
Target body name: Saturn (699)                    {source: sat427l_merged_DE438}
Center body name: Sun (10)                        {source: sat427l_merged_DE438}
Center-site name: BODY CENTER
*******************************************************************************
Start time      : A.D. 1900-Jan-01 00:00:00.0000 TDB
Stop  time      : A.D. 2099-Jan-01 00:00:00.0000 TDB
Step-size       : 72000 minutes
*******************************************************************************
Center geodetic : 0.00000000,0.00000000,0.0000000 {E-lon(deg),Lat(deg),Alt(km)}
Center cylindric: 0.00000000,0.00000000,0.0000000 {E-lon(deg),Dxy(km),Dz(km)}
Center radii    : 696000.0 x 696000.0 x 696000.0 k{Equator, meridian, pole}    
Output units    : AU-D
Output type     : GEOMETRIC cartesian states
Output format   : 2 (position and velocity)
Reference frame : ICRF
*******************************************************************************
JDTDB
   X     Y     Z
   VX    VY    VZ
*******************************************************************************
$$SOE
2454620.500000000 = A.D. 2008-Jun-03 00:00:00.0000 TDB 
 X =-8.658399533764992E+00 Y = 3.008431135877932E+00 Z = 1.615329752880760E+00
 VX=-2.332991121334756E-03 VY=-4.846851967446465E-03 VZ=-1.901411122812835E-03
2454670.500000000 = A.D. 2008-Jul-23 00:00:00.0000 TDB 
 X =-8.771103147352283E+00 Y = 2.764754014533720E+00 Z = 1.519541411843741E+00
 VX=-2.173764469424481E-03 VY=-4.898807737588612E-03 VZ=-1.929958676156132E-03
2454720.500000000 = A.D. 2008-Sep-11 00:00:00.0000 TDB 
 X =-8.875797577528067E+00 Y = 2.518572291756857E+00 Z = 1.422373479052692E+00
 VX=-2.013527571488448E-03 VY=-4.946392332118369E-03 VZ=-1.956548480445207E-03
2454770.500000000 = A.D. 2008-Oct-31 00:00:00.0000 TDB 
 X =-8.972427752689764E+00 Y = 2.270122336592225E+00 Z = 1.323921871106563E+00
 VX=-1.852247478337067E-03 VY=-4.989714090380752E-03 VZ=-1.981214994017622E-03
2454820.500000000 = A.D. 2008-Dec-20 00:00:00.0000 TDB 
 X =-9.060947122649031E+00 Y = 2.019636604504703E+00 Z = 1.224280827806063E+00
 VX=-1.689715215279720E-03 VY=-5.028748315125972E-03 VZ=-2.004014927294544E-03
2454870.500000000 = A.D. 2009-Feb-08 00:00:00.0000 TDB 
 X =-9.141313045368534E+00 Y = 1.767345160215439E+00 Z = 1.123543593564363E+00
 VX=-1.525812932616901E-03 VY=-5.063014387432066E-03 VZ=-2.025008524524952E-03
2454920.500000000 = A.D. 2009-Mar-30 00:00:00.0000 TDB 
 X =-9.213486802805971E+00 Y = 1.513482364519109E+00 Z = 1.021804819714165E+00
 VX=-1.361005755613300E-03 VY=-5.092035905796063E-03 VZ=-2.044130567145794E-03
2454970.500000000 = A.D. 2009-May-19 00:00:00.0000 TDB 
 X =-9.277441610939952E+00 Y = 1.258287367067065E+00 Z = 9.191615259769917E-01
 VX=-1.196116616869906E-03 VY=-5.115790943746724E-03 VZ=-2.061312801503639E-03
2455020.500000000 = A.D. 2009-Jul-08 00:00:00.0000 TDB 
 X =-9.333165323441559E+00 Y = 1.001996078950547E+00 Z = 8.157105631126759E-01
 VX=-1.031594300004932E-03 VY=-5.134852791086062E-03 VZ=-2.076537472466006E-03
2455070.500000000 = A.D. 2009-Aug-27 00:00:00.0000 TDB 
 X =-9.380654920585785E+00 Y = 7.448369118963258E-01 Z = 7.115460952473980E-01
 VX=-8.673507786524987E-04 VY=-5.149689420276221E-03 VZ=-2.089859257235242E-03
2455120.500000000 = A.D. 2009-Oct-16 00:00:00.0000 TDB 
 X =-9.419908439110120E+00 Y = 4.870347646788312E-01 Z = 6.067610664640262E-01
 VX=-7.031861778243431E-04 VY=-5.160455919297175E-03 VZ=-2.101279194331259E-03
2455170.500000000 = A.D. 2009-Dec-05 00:00:00.0000 TDB 
 X =-9.450928306080463E+00 Y = 2.288152457702860E-01 Z = 5.014491801800134E-01
 VX=-5.388394623554682E-04 VY=-5.167024436046868E-03 VZ=-2.110806743428857E-03
2455220.500000000 = A.D. 2010-Jan-24 00:00:00.0000 TDB 
 X =-9.473726609076238E+00 Y =-2.959349399745391E-02 Z = 3.957054652964553E-01
 VX=-3.743624994108001E-04 VY=-5.169165840503119E-03 VZ=-2.118489254553866E-03
2455270.500000000 = A.D. 2010-Mar-15 00:00:00.0000 TDB 
 X =-9.488323819525595E+00 Y =-2.879677553091632E-01 Z = 2.896230391934310E-01
 VX=-2.099671076530434E-04 VY=-5.166406933295799E-03 VZ=-2.124380970488168E-03
2455320.500000000 = A.D. 2010-May-04 00:00:00.0000 TDB 
 X =-9.494747652606602E+00 Y =-5.460870098961411E-01 Z = 1.832936108096115E-01
 VX=-4.627440036184000E-05 VY=-5.158742270461836E-03 VZ=-2.128483577645031E-03
2455370.500000000 = A.D. 2010-Jun-23 00:00:00.0000 TDB 
 X =-9.493029317297141E+00 Y =-8.037303970551356E-01 Z = 7.680906031877568E-02
 VX= 1.162128954508659E-04 VY=-5.146411267754352E-03 VZ=-2.130701270506170E-03
2455420.500000000 = A.D. 2010-Aug-12 00:00:00.0000 TDB 
 X =-9.483210649137515E+00 Y =-1.060678617696519E+00 Z =-2.973816169730643E-02
 VX= 2.773348634364182E-04 VY=-5.129908411266598E-03 VZ=-2.131023285241528E-03
2455470.500000000 = A.D. 2010-Oct-01 00:00:00.0000 TDB 
 X =-9.465344347030941E+00 Y =-1.316716607636262E+00 Z =-1.362565319439524E-01
 VX= 4.371674688382304E-04 VY=-5.109615475540379E-03 VZ=-2.129516171850898E-03
2455520.500000000 = A.D. 2010-Nov-20 00:00:00.0000 TDB 
 X =-9.439486731619544E+00 Y =-1.571638629700248E+00 Z =-2.426584440122770E-01
 VX= 5.959909439675236E-04 VY=-5.085665831038452E-03 VZ=-2.126251294411653E-03
2455570.500000000 = A.D. 2011-Jan-09 00:00:00.0000 TDB 
 X =-9.405694427498551E+00 Y =-1.825242013291803E+00 Z =-3.488573899421848E-01
 VX= 7.541700832421780E-04 VY=-5.057867611136380E-03 VZ=-2.121290114472692E-03
2455620.500000000 = A.D. 2011-Feb-28 00:00:00.0000 TDB 
 X =-9.364026164412765E+00 Y =-2.077320569067613E+00 Z =-4.547658647324829E-01
 VX= 9.115358834970182E-04 VY=-5.025679405495023E-03 VZ=-2.114611590538855E-03
2455670.500000000 = A.D. 2011-Apr-19 00:00:00.0000 TDB 
 X =-9.314552074803013E+00 Y =-2.327667479921346E+00 Z =-5.602957089365546E-01
 VX= 1.067490041279190E-03 VY=-4.988825190854228E-03 VZ=-2.106235065383231E-03
2455720.500000000 = A.D. 2011-Jun-08 00:00:00.0000 TDB 
 X =-9.257353257700180E+00 Y =-2.576081900055053E+00 Z =-6.653608401307197E-01
 VX= 1.221354073250934E-03 VY=-4.947663540635803E-03 VZ=-2.096161047293853E-03
2455770.500000000 = A.D. 2011-Jul-28 00:00:00.0000 TDB 
 X =-9.192515032482273E+00 Y =-2.822370917454966E+00 Z =-7.698783593019041E-01
 VX= 1.373044146367666E-03 VY=-4.902758110092974E-03 VZ=-2.084401399150982E-03
2455820.500000000 = A.D. 2011-Sep-16 00:00:00.0000 TDB 
 X =-9.120123493037994E+00 Y =-3.066344857467336E+00 Z =-8.737660439750713E-01
 VX= 1.522677032133002E-03 VY=-4.854383922584775E-03 VZ=-2.070944510785367E-03
2455870.500000000 = A.D. 2011-Nov-05 00:00:00.0000 TDB 
 X =-9.040270955021485E+00 Y =-3.307815139262149E+00 Z =-9.769415786567409E-01
 VX= 1.670455385137977E-03 VY=-4.802713242692416E-03 VZ=-2.055822864880171E-03
2455920.500000000 = A.D. 2011-Dec-25 00:00:00.0000 TDB 
 X =-8.953056741965097E+00 Y =-3.546597250456594E+00 Z =-1.079323996553787E+00
 VX= 1.816493382042865E-03 VY=-4.747740297220874E-03 VZ=-2.039123396210620E-03
2455970.500000000 = A.D. 2012-Feb-13 00:00:00.0000 TDB 
 X =-8.858582901483400E+00 Y =-3.782514414289508E+00 Z =-1.180835667036546E+00
 VX= 1.961056257021490E-03 VY=-4.689192318737222E-03 VZ=-2.020936331125133E-03
2456020.500000000 = A.D. 2012-Apr-03 00:00:00.0000 TDB 
 X =-8.756952413500089E+00 Y =-4.015390519601913E+00 Z =-1.281399861929900E+00
 VX= 2.103794578950473E-03 VY=-4.626637032663900E-03 VZ=-2.001279035997565E-03
2456070.500000000 = A.D. 2012-May-23 00:00:00.0000 TDB 
 X =-8.648271857690139E+00 Y =-4.245048045357865E+00 Z =-1.380939256724496E+00
 VX= 2.244044307454160E-03 VY=-4.560006482502349E-03 VZ=-1.980066880352791E-03
2456120.500000000 = A.D. 2012-Jul-12 00:00:00.0000 TDB 
 X =-8.532660493613623E+00 Y =-4.471312714862877E+00 Z =-1.479376802304547E+00
 VX= 2.381329039617467E-03 VY=-4.489856830934525E-03 VZ=-1.957312384620805E-03
2456170.500000000 = A.D. 2012-Aug-31 00:00:00.0000 TDB 
 X =-8.410244368700786E+00 Y =-4.694018424442600E+00 Z =-1.576638390048322E+00
 VX= 2.515670064637618E-03 VY=-4.416795797818126E-03 VZ=-1.933063959636010E-03
2456220.500000000 = A.D. 2012-Oct-20 00:00:00.0000 TDB 
 X =-8.281149457152939E+00 Y =-4.913009513496625E+00 Z =-1.672654056689502E+00
 VX= 2.647448481492040E-03 VY=-4.341035104276391E-03 VZ=-1.907392188171432E-03
